[{"OBJECT_NAME":"STARLINK-5037","OBJECT_ID":"2022-119L","EPOCH":"2026-03-09T22:23:46.104864","MEAN_MOTION":15.08829998,"ECCENTRICITY":0.00011991,"INCLINATION":53.2185,"RA_OF_ASC_NODE":322.8658,"ARG_OF_PERICENTER":95.8636,"MEAN_ANOMALY":264.2493,"EPHEMERIS_TYPE":0,"CLASSIFICATION_TYPE":"U","NORAD_CAT_ID":53896,"ELEMENT_SET_NO":999,"REV_AT_EPOCH":19172,"BSTAR":2.0201437e-5,"MEAN_MOTION_DOT":3.4e-7,"MEAN_MOTION_DDOT":0},{"OBJECT_NAME":"DELTA 1 DEB","OBJECT_ID":"1977-065F","EPOCH":"2026-03-07T02:52:17.224320","MEAN_MOTION":14.18507323,"ECCENTRICITY":0.04728611,"INCLINATION":28.2353,"RA_OF_ASC_NODE":348.8743,"ARG_OF_PERICENTER":258.4635,"MEAN_ANOMALY":96.2486,"EPHEMERIS_TYPE":0,"CLASSIFICATION_TYPE":"U","NORAD_CAT_ID":10177,"ELEMENT_SET_NO":999,"REV_AT_EPOCH":28253,"BSTAR":0.00045332174,"MEAN_MOTION_DOT":3.156e-5,"MEAN_MOTION_DDOT":0}]
